{"type":"FeatureCollection","features":[{"type":"Feature","geometry":{"type":"Point","coordinates":[47.165321172727275,56.138706218181824]},"properties":{"id":"m14","title":"Доступный путь: школа для детей с ОВЗ №2","status":"место для обследования","problem":"Путь в обычном графе есть; после консервативного исключения известных/непроверенных барьеров МГН связь не найдена.","evidence":["Обычный сетевой путь 211 м; в режиме исключения барьеров: нет связного пути OSM. Объект way 388690881; отсутствие wheelchair=yes у ворот также исключает ребро."],"proposal":"Проверить непрерывность доступного маршрута до входа: ворота, бордюры, уклоны, поверхность и посадку; затем выбрать локальное устранение подтверждённого барьера.","mechanism":"Непрерывный доступный путь позволит пользоваться остановкой без ступеней или непроходимого входа.","limit":"Консервативный режим исключает ворота с неизвестной доступностью и грубые поверхности. Это не доказательство невозможности проезда коляски; неизвестные теги не сертифицируют оставшиеся пути.","fieldwork":"Пройти маршрут совместно с пользователем кресла-коляски; измерить свободную ширину, продольный/поперечный уклон, высоту бордюров, доступность ворот и посадочной площадки. Сверить СП 59.13330 актуальной редакции.","ratings":{"benefit":4,"safety":5,"accessibility":5,"feasibility":3,"evidence":1},"sources":[{"name":"Каталог остановок buscheb.ru","url":"https://buscheb.ru/php/getStations.php?city=cheboksari"},{"name":"OpenStreetMap · снимок Чувашии","url":"https://www.osmlab.ru/regions/RU-CU.pbf"},{"name":"Росстандарт · ГОСТ Р 70716-2023","url":"https://protect.gost.ru/gost/details/ec825dd5-abe3-4062-8a19-63ddf5cef45f"},{"name":"OSM way 388690881","url":"https://www.openstreetmap.org/way/388690881"}],"confidence":"низкая без натурной проверки","stop":66,"type":"accessible","score":77.0,"rank":1}},{"type":"Feature","geometry":{"type":"Point","coordinates":[47.264862,56.114851]},"properties":{"id":"m12","title":"Проверить подходы: Автостанция \"Привокзальная\"","status":"место для обследования","problem":"Остановка не имеет допустимой привязки к нанесённой пешей сети в пределах 30 м.","evidence":["Привязка отклонена: нет близкого разрешённого ребра или соединение пересекает дорожную ось/ограждение.","Потенциальные OSM-объекты в 400 м по прямой: {'работа': 6, 'торговля и пересадки': 48, 'образование': 5, 'медицина': 1, 'жильё': 21}. Это приоритет обследования, не число пассажиров."],"proposal":"Снять положение посадочной площадки и пути, обновить OSM; по результату рассмотреть тротуарный коннектор, доступную площадку, навес, свет и указатели пересадки.","mechanism":"Проверка выявит реальный путь и условия ожидания; улучшение непрерывности подхода особенно полезно людям с колясками.","limit":"Нет связности в модели не означает отсутствие тротуара. Координата каталога может находиться на проезжей части. Наличие навеса, освещения и состояние покрытия не обследованы.","fieldwork":"Сверить координату с фактической посадкой; обследовать входы, переходы, бордюры, ширину, уклоны, поверхность, навес, освещённость и навигацию; учитывать пересадки и движение автобусов.","ratings":{"benefit":4,"safety":4,"accessibility":5,"feasibility":4,"evidence":1},"sources":[{"name":"Каталог остановок buscheb.ru","url":"https://buscheb.ru/php/getStations.php?city=cheboksari"},{"name":"OpenStreetMap · снимок Чувашии","url":"https://www.osmlab.ru/regions/RU-CU.pbf"}],"confidence":"низкая без натурной проверки","stop":15,"type":"survey","score":75.0,"rank":2}},{"type":"Feature","geometry":{"type":"Point","coordinates":[47.257376,56.136187]},"properties":{"id":"m13","title":"Проверить подходы: Благовещенский мкр.","status":"место для обследования","problem":"Остановка не имеет допустимой привязки к нанесённой пешей сети в пределах 30 м.","evidence":["Привязка отклонена: нет близкого разрешённого ребра или соединение пересекает дорожную ось/ограждение.","Потенциальные OSM-объекты в 400 м по прямой: {'торговля и пересадки': 11, 'работа': 2, 'жильё': 73, 'образование': 2}. Это приоритет обследования, не число пассажиров."],"proposal":"Снять положение посадочной площадки и пути, обновить OSM; по результату рассмотреть тротуарный коннектор, доступную площадку, навес, свет и указатели пересадки.","mechanism":"Проверка выявит реальный путь и условия ожидания; улучшение непрерывности подхода особенно полезно людям с колясками.","limit":"Нет связности в модели не означает отсутствие тротуара. Координата каталога может находиться на проезжей части. Наличие навеса, освещения и состояние покрытия не обследованы.","fieldwork":"Сверить координату с фактической посадкой; обследовать входы, переходы, бордюры, ширину, уклоны, поверхность, навес, освещённость и навигацию; учитывать пересадки и движение автобусов.","ratings":{"benefit":4,"safety":4,"accessibility":5,"feasibility":4,"evidence":1},"sources":[{"name":"Каталог остановок buscheb.ru","url":"https://buscheb.ru/php/getStations.php?city=cheboksari"},{"name":"OpenStreetMap · снимок Чувашии","url":"https://www.osmlab.ru/regions/RU-CU.pbf"}],"confidence":"низкая без натурной проверки","stop":51,"type":"survey","score":75.0,"rank":3}},{"type":"Feature","geometry":{"type":"Point","coordinates":[47.262057,56.11725]},"properties":{"id":"m07","title":"Связь остановок: Детский парк Николаева","status":"обоснованная гипотеза","problem":"В нанесённой сети путь между одноимёнными остановками значительно длиннее прямого расстояния. Наличие проблемы на местности не подтверждено.","evidence":["Путь OSM 460 м против 34 м по прямой (×13.41); доп. длина модели 426 м, не ожидаемый эффект строительства.","Существующий переход OSM №8868656216 в 21 м по прямой от остановки: {'highway': 'crossing', 'crossing': 'uncontrolled'}. Следовательно, нельзя утверждать, что переход отсутствует.","Ближайшая дорожная линия: улица Энгельса; lanes=3 для этой линии/проезжей части, maxspeed=RU:urban — тег, не измеренная скорость. Потенциальные OSM-объекты в 400 м по прямой: {'торговля и пересадки': 51, 'работа': 6, 'образование': 4, 'медицина': 4, 'жильё': 39}."],"proposal":"Проверить существующий переход и проходы; исправить картографическую связность. При реальном обходе рассмотреть соединение площадок с переходом, доступные бордюры и навигацию; новый переход — только после отдельного обоснования.","mechanism":"Непрерывный безопасный путь может сократить обход при смене направления и пересадке; величина эффекта зависит от фактического пути.","limit":"Модель соединяет остановку с ребром не далее 30 м. Отсутствующий OSM-коннектор к уже существующему переходу может полностью объяснять обход. Парность по имени — гипотеза; lanes не сумма полос двух проезжих частей. ДТП, видимость и реальные скорости: нет данных.","fieldwork":"Пройти обе связи и зафиксировать входы, ограждения и существующие переходы; измерить пешеходные направления и потоки, все полосы, скорости автомобилей (включая V85), видимость, освещение, бордюры и ДТП за несколько лет. Проверить актуальные нормы и согласование владельца дороги.","ratings":{"benefit":4,"safety":4,"accessibility":4,"feasibility":3,"evidence":2},"sources":[{"name":"Каталог остановок buscheb.ru","url":"https://buscheb.ru/php/getStations.php?city=cheboksari"},{"name":"OpenStreetMap · снимок Чувашии","url":"https://www.osmlab.ru/regions/RU-CU.pbf"},{"name":"Госавтоинспекция · статистика ДТП","url":"https://stat.gibdd.ru/"},{"name":"Росстандарт · ГОСТ Р 70716-2023","url":"https://protect.gost.ru/gost/details/ec825dd5-abe3-4062-8a19-63ddf5cef45f"},{"name":"OSM node 8868656216","url":"https://www.openstreetmap.org/node/8868656216"}],"confidence":"средняя","stop":119,"type":"transfer","score":71.0,"rank":4}},{"type":"Feature","geometry":{"type":"Point","coordinates":[47.261711,56.106533]},"properties":{"id":"m08","title":"Связь остановок: Дом печати","status":"обоснованная гипотеза","problem":"В нанесённой сети путь между одноимёнными остановками значительно длиннее прямого расстояния. Наличие проблемы на местности не подтверждено.","evidence":["Путь OSM 660 м против 50 м по прямой (×13.18); доп. длина модели 610 м, не ожидаемый эффект строительства.","Существующий переход OSM №2329476419 в 97 м по прямой от остановки: {'highway': 'crossing', 'crossing': 'uncontrolled'}. Следовательно, нельзя утверждать, что переход отсутствует.","Ближайшая дорожная линия: проспект Ивана Яковлева; lanes=3 для этой линии/проезжей части, maxspeed=RU:urban — тег, не измеренная скорость. Потенциальные OSM-объекты в 400 м по прямой: {'торговля и пересадки': 22, 'работа': 2, 'жильё': 1, 'образование': 1}."],"proposal":"Проверить существующий переход и проходы; исправить картографическую связность. При реальном обходе рассмотреть соединение площадок с переходом, доступные бордюры и навигацию; новый переход — только после отдельного обоснования.","mechanism":"Непрерывный безопасный путь может сократить обход при смене направления и пересадке; величина эффекта зависит от фактического пути.","limit":"Модель соединяет остановку с ребром не далее 30 м. Отсутствующий OSM-коннектор к уже существующему переходу может полностью объяснять обход. Парность по имени — гипотеза; lanes не сумма полос двух проезжих частей. ДТП, видимость и реальные скорости: нет данных.","fieldwork":"Пройти обе связи и зафиксировать входы, ограждения и существующие переходы; измерить пешеходные направления и потоки, все полосы, скорости автомобилей (включая V85), видимость, освещение, бордюры и ДТП за несколько лет. Проверить актуальные нормы и согласование владельца дороги.","ratings":{"benefit":4,"safety":4,"accessibility":4,"feasibility":3,"evidence":2},"sources":[{"name":"Каталог остановок buscheb.ru","url":"https://buscheb.ru/php/getStations.php?city=cheboksari"},{"name":"OpenStreetMap · снимок Чувашии","url":"https://www.osmlab.ru/regions/RU-CU.pbf"},{"name":"Госавтоинспекция · статистика ДТП","url":"https://stat.gibdd.ru/"},{"name":"Росстандарт · ГОСТ Р 70716-2023","url":"https://protect.gost.ru/gost/details/ec825dd5-abe3-4062-8a19-63ddf5cef45f"},{"name":"OSM node 2329476419","url":"https://www.openstreetmap.org/node/2329476419"}],"confidence":"средняя","stop":133,"type":"transfer","score":71.0,"rank":5}},{"type":"Feature","geometry":{"type":"Point","coordinates":[47.314676,56.109661]},"properties":{"id":"m09","title":"Связь остановок: Кочаково","status":"обоснованная гипотеза","problem":"В нанесённой сети путь между одноимёнными остановками значительно длиннее прямого расстояния. Наличие проблемы на местности не подтверждено.","evidence":["Путь OSM 632 м против 72 м по прямой (×8.81); доп. длина модели 560 м, не ожидаемый эффект строительства.","Существующий переход OSM №5003679639 в 15 м по прямой от остановки: {'highway': 'crossing'}. Следовательно, нельзя утверждать, что переход отсутствует.","Ближайшая дорожная линия: улица Ленинского Комсомола; lanes=2 для этой линии/проезжей части, maxspeed=40 — тег, не измеренная скорость. Потенциальные OSM-объекты в 400 м по прямой: {'торговля и пересадки': 11, 'работа': 1, 'жильё': 79, 'образование': 6}."],"proposal":"Проверить существующий переход и проходы; исправить картографическую связность. При реальном обходе рассмотреть соединение площадок с переходом, доступные бордюры и навигацию; новый переход — только после отдельного обоснования.","mechanism":"Непрерывный безопасный путь может сократить обход при смене направления и пересадке; величина эффекта зависит от фактического пути.","limit":"Модель соединяет остановку с ребром не далее 30 м. Отсутствующий OSM-коннектор к уже существующему переходу может полностью объяснять обход. Парность по имени — гипотеза; lanes не сумма полос двух проезжих частей. ДТП, видимость и реальные скорости: нет данных.","fieldwork":"Пройти обе связи и зафиксировать входы, ограждения и существующие переходы; измерить пешеходные направления и потоки, все полосы, скорости автомобилей (включая V85), видимость, освещение, бордюры и ДТП за несколько лет. Проверить актуальные нормы и согласование владельца дороги.","ratings":{"benefit":4,"safety":4,"accessibility":4,"feasibility":3,"evidence":2},"sources":[{"name":"Каталог остановок buscheb.ru","url":"https://buscheb.ru/php/getStations.php?city=cheboksari"},{"name":"OpenStreetMap · снимок Чувашии","url":"https://www.osmlab.ru/regions/RU-CU.pbf"},{"name":"Госавтоинспекция · статистика ДТП","url":"https://stat.gibdd.ru/"},{"name":"Росстандарт · ГОСТ Р 70716-2023","url":"https://protect.gost.ru/gost/details/ec825dd5-abe3-4062-8a19-63ddf5cef45f"},{"name":"OSM node 5003679639","url":"https://www.openstreetmap.org/node/5003679639"}],"confidence":"средняя","stop":231,"type":"transfer","score":71.0,"rank":6}},{"type":"Feature","geometry":{"type":"Point","coordinates":[47.20732065,56.07293285]},"properties":{"id":"m10","title":"Подход: ДЮСШ №4 им. Тихонова","status":"обоснованная гипотеза","problem":"В OSM от объекта до сети ближайших остановок получается длинный путь; прямой круг переоценивает доступность.","evidence":["Совхозная улица, 2Б; сетевой путь до любой привязанной остановки 1389 м, ближайшая по прямой 324 м, отношение 4.29; школьный объект — прокси потенциального спроса.","За 10 мин при 4,5 км/ч бюджет 750 м: объект за пределом расчётной доступности. Привязка к пути 23.9 м; точка — центр OSM-объекта, не проверенный вход."],"proposal":"Обследовать входы и маршрут детей; проверить нанесённость короткого прохода. При реальном разрыве рассмотреть дорожку к существующему переходу или изменение остановки после проверки маршрута и безопасности.","mechanism":"Непрерывный подход может уменьшить обход к учебному объекту; спрос и количественная польза не измерены.","limit":"Геометрия входов и расписание учреждения неизвестны. Модель не доказывает отсутствие физического короткого пути; ближайшая по прямой остановка может отличаться от достигнутой по сети.","fieldwork":"Пройти от фактического входа до остановок в обоих направлениях; проверить ворота, зимнее содержание, свет, ширину и бордюры; наблюдать поток детей. Проверить варианты добавления/переноса остановки с оператором.","ratings":{"benefit":3,"safety":5,"accessibility":4,"feasibility":3,"evidence":2},"sources":[{"name":"Каталог остановок buscheb.ru","url":"https://buscheb.ru/php/getStations.php?city=cheboksari"},{"name":"OpenStreetMap · снимок Чувашии","url":"https://www.osmlab.ru/regions/RU-CU.pbf"},{"name":"Росстандарт · ГОСТ Р 70716-2023","url":"https://protect.gost.ru/gost/details/ec825dd5-abe3-4062-8a19-63ddf5cef45f"},{"name":"OSM way 285150029","url":"https://www.openstreetmap.org/way/285150029"}],"confidence":"средняя","stop":372,"type":"approach","score":71.0,"rank":7}},{"type":"Feature","geometry":{"type":"Point","coordinates":[47.21924761666667,56.06989803333334]},"properties":{"id":"m11","title":"Подход: Школа искусств","status":"обоснованная гипотеза","problem":"В OSM от объекта до сети ближайших остановок получается длинный путь; прямой круг переоценивает доступность.","evidence":["Совхозная улица, 9Б; сетевой путь до любой привязанной остановки 847 м, ближайшая по прямой 239 м, отношение 3.55; школьный объект — прокси потенциального спроса.","За 10 мин при 4,5 км/ч бюджет 750 м: объект за пределом расчётной доступности. Привязка к пути 18.0 м; точка — центр OSM-объекта, не проверенный вход."],"proposal":"Обследовать входы и маршрут детей; проверить нанесённость короткого прохода. При реальном разрыве рассмотреть дорожку к существующему переходу или изменение остановки после проверки маршрута и безопасности.","mechanism":"Непрерывный подход может уменьшить обход к учебному объекту; спрос и количественная польза не измерены.","limit":"Геометрия входов и расписание учреждения неизвестны. Модель не доказывает отсутствие физического короткого пути; ближайшая по прямой остановка может отличаться от достигнутой по сети.","fieldwork":"Пройти от фактического входа до остановок в обоих направлениях; проверить ворота, зимнее содержание, свет, ширину и бордюры; наблюдать поток детей. Проверить варианты добавления/переноса остановки с оператором.","ratings":{"benefit":3,"safety":5,"accessibility":4,"feasibility":3,"evidence":2},"sources":[{"name":"Каталог остановок buscheb.ru","url":"https://buscheb.ru/php/getStations.php?city=cheboksari"},{"name":"OpenStreetMap · снимок Чувашии","url":"https://www.osmlab.ru/regions/RU-CU.pbf"},{"name":"Росстандарт · ГОСТ Р 70716-2023","url":"https://protect.gost.ru/gost/details/ec825dd5-abe3-4062-8a19-63ddf5cef45f"},{"name":"OSM way 306541850","url":"https://www.openstreetmap.org/way/306541850"}],"confidence":"средняя","stop":326,"type":"approach","score":71.0,"rank":8}},{"type":"Feature","geometry":{"type":"Point","coordinates":[47.225397496888924,56.12497933884298]},"properties":{"id":"m01","title":"Замедление: ул.Богдана Хмельницкого","status":"подтверждённое наблюдение","problem":"Повторяется малая скорость наблюдаемого транспорта на участке сетки 250 м; причина не установлена.","evidence":["Т:10, курс В, утро (7–10 МСК), будни. Средняя 6.2 км/ч, 95% ДИ по дням 5.5–7.1; P10/P50/P90 0.0/6.4/16.5.","14 дней, 10 машин, 185 сегментов; 14 дней со средней <12 км/ч. Доля времени <5 км/ч 51.4%. Даты: 2026-09-15, 2026-09-16, 2026-09-17, 2026-09-18, 2026-09-21, 2026-09-22, 2026-09-23, 2026-09-24, 2026-09-25, 2026-09-28, 2026-09-29, 2026-09-30, 2026-10-01, 2026-10-02.","Другой курс С: 1.4 км/ч, 14 дней (состав сегментов может различаться)."],"proposal":"Обследовать задержки; при подтверждении светофорной причины рассмотреть транспортный приоритет, настройку фаз или организацию подхода к остановке.","mechanism":"Уменьшение повторяющихся задержек может улучшить время поездки и регулярность. Эффект в минутах не рассчитан.","limit":"Середина сегмента вне радиуса 70 м не исключает стоянку на части сегмента. GPS не измеряет загрузку всей дороги. Клетка может содержать несколько улиц; ближайшая остановка — ориентир. Терминальные клетки отсеяны, остаточная стоянка возможна.","fieldwork":"Проехать с журналом открытия дверей; измерить очереди и задержки по фазам, контрольное время движения, фактическую полосу и остановку. Сверить маршрут и график с оператором.","ratings":{"benefit":4,"safety":3,"accessibility":3,"feasibility":3,"evidence":4},"sources":[{"name":"GPS-архив daniilakk / buscheb.ru","url":"https://huggingface.co/datasets/daniilakk/cheboksary-public-transport-gps-daily"},{"name":"Каталог остановок buscheb.ru","url":"https://buscheb.ru/php/getStations.php?city=cheboksari"},{"name":"ЧТУ · официальные маршруты","url":"https://xn--21-qmces.xn--p1ai/marshruty.html"}],"confidence":"высокая для наблюдения, средняя для причины","stop":551,"type":"speed","score":68.0,"rank":9}},{"type":"Feature","geometry":{"type":"Point","coordinates":[47.253602446487605,56.12497933884298]},"properties":{"id":"m02","title":"Замедление: Мир Луксор","status":"подтверждённое наблюдение","problem":"Повторяется малая скорость наблюдаемого транспорта на участке сетки 250 м; причина не установлена.","evidence":["Т:1, курс Ю, утро (7–10 МСК), будни. Средняя 6.6 км/ч, 95% ДИ по дням 5.9–7.2; P10/P50/P90 2.2/7.1/10.4.","14 дней, 31 машин, 214 сегментов; 14 дней со средней <12 км/ч. Доля времени <5 км/ч 29.0%. Даты: 2026-09-15, 2026-09-16, 2026-09-17, 2026-09-18, 2026-09-21, 2026-09-22, 2026-09-23, 2026-09-24, 2026-09-25, 2026-09-28, 2026-09-29, 2026-09-30, 2026-10-01, 2026-10-02.","Другой курс С: 15.0 км/ч, 14 дней (состав сегментов может различаться)."],"proposal":"Обследовать задержки; при подтверждении светофорной причины рассмотреть транспортный приоритет, настройку фаз или организацию подхода к остановке.","mechanism":"Уменьшение повторяющихся задержек может улучшить время поездки и регулярность. Эффект в минутах не рассчитан.","limit":"Середина сегмента вне радиуса 70 м не исключает стоянку на части сегмента. GPS не измеряет загрузку всей дороги. Клетка может содержать несколько улиц; ближайшая остановка — ориентир. Терминальные клетки отсеяны, остаточная стоянка возможна.","fieldwork":"Проехать с журналом открытия дверей; измерить очереди и задержки по фазам, контрольное время движения, фактическую полосу и остановку. Сверить маршрут и график с оператором.","ratings":{"benefit":4,"safety":3,"accessibility":3,"feasibility":3,"evidence":4},"sources":[{"name":"GPS-архив daniilakk / buscheb.ru","url":"https://huggingface.co/datasets/daniilakk/cheboksary-public-transport-gps-daily"},{"name":"Каталог остановок buscheb.ru","url":"https://buscheb.ru/php/getStations.php?city=cheboksari"},{"name":"ЧТУ · официальные маршруты","url":"https://xn--21-qmces.xn--p1ai/marshruty.html"}],"confidence":"высокая для наблюдения, средняя для причины","stop":302,"type":"speed","score":68.0,"rank":10}},{"type":"Feature","geometry":{"type":"Point","coordinates":[47.253602446487605,56.122733560905495]},"properties":{"id":"m03","title":"Замедление: Русский драмтеатр","status":"подтверждённое наблюдение","problem":"Повторяется малая скорость наблюдаемого транспорта на участке сетки 250 м; причина не установлена.","evidence":["М:43, курс В, утро (7–10 МСК), будни. Средняя 7.0 км/ч, 95% ДИ по дням 6.4–7.7; P10/P50/P90 3.7/6.9/18.3.","13 дней, 15 машин, 205 сегментов; 13 дней со средней <12 км/ч. Доля времени <5 км/ч 39.4%. Даты: 2026-09-15, 2026-09-16, 2026-09-17, 2026-09-18, 2026-09-21, 2026-09-22, 2026-09-23, 2026-09-25, 2026-09-28, 2026-09-29, 2026-09-30, 2026-10-01, 2026-10-02.","Другой курс С: 5.9 км/ч, 13 дней (состав сегментов может различаться).","Другой курс З: 7.5 км/ч, 13 дней (состав сегментов может различаться)."],"proposal":"Обследовать задержки; при подтверждении светофорной причины рассмотреть транспортный приоритет, настройку фаз или организацию подхода к остановке.","mechanism":"Уменьшение повторяющихся задержек может улучшить время поездки и регулярность. Эффект в минутах не рассчитан.","limit":"Середина сегмента вне радиуса 70 м не исключает стоянку на части сегмента. GPS не измеряет загрузку всей дороги. Клетка может содержать несколько улиц; ближайшая остановка — ориентир. Терминальные клетки отсеяны, остаточная стоянка возможна.","fieldwork":"Проехать с журналом открытия дверей; измерить очереди и задержки по фазам, контрольное время движения, фактическую полосу и остановку. Сверить маршрут и график с оператором.","ratings":{"benefit":4,"safety":3,"accessibility":3,"feasibility":3,"evidence":4},"sources":[{"name":"GPS-архив daniilakk / buscheb.ru","url":"https://huggingface.co/datasets/daniilakk/cheboksary-public-transport-gps-daily"},{"name":"Каталог остановок buscheb.ru","url":"https://buscheb.ru/php/getStations.php?city=cheboksari"},{"name":"ЧТУ · официальные маршруты","url":"https://xn--21-qmces.xn--p1ai/marshruty.html"}],"confidence":"высокая для наблюдения, средняя для причины","stop":421,"type":"speed","score":68.0,"rank":11}},{"type":"Feature","geometry":{"type":"Point","coordinates":[47.32612945974135,56.10925889328063]},"properties":{"id":"m04","title":"Замедление: Торговый центр \"Лента\"","status":"подтверждённое наблюдение","problem":"Повторяется малая скорость наблюдаемого транспорта на участке сетки 250 м; причина не установлена.","evidence":["Т:14, курс В, вечерний пик (16–19 МСК), будни. Средняя 7.9 км/ч, 95% ДИ по дням 6.8–9.1; P10/P50/P90 0.0/5.4/20.6.","14 дней, 18 машин, 168 сегментов; 13 дней со средней <12 км/ч. Доля времени <5 км/ч 46.9%. Даты: 2026-09-15, 2026-09-16, 2026-09-17, 2026-09-18, 2026-09-21, 2026-09-22, 2026-09-23, 2026-09-24, 2026-09-25, 2026-09-28, 2026-09-29, 2026-09-30, 2026-10-01, 2026-10-02.","Другой курс З: 17.2 км/ч, 14 дней (состав сегментов может различаться)."],"proposal":"Обследовать задержки; при подтверждении светофорной причины рассмотреть транспортный приоритет, настройку фаз или организацию подхода к остановке.","mechanism":"Уменьшение повторяющихся задержек может улучшить время поездки и регулярность. Эффект в минутах не рассчитан.","limit":"Середина сегмента вне радиуса 70 м не исключает стоянку на части сегмента. GPS не измеряет загрузку всей дороги. Клетка может содержать несколько улиц; ближайшая остановка — ориентир. Терминальные клетки отсеяны, остаточная стоянка возможна.","fieldwork":"Проехать с журналом открытия дверей; измерить очереди и задержки по фазам, контрольное время движения, фактическую полосу и остановку. Сверить маршрут и график с оператором.","ratings":{"benefit":4,"safety":3,"accessibility":3,"feasibility":3,"evidence":4},"sources":[{"name":"GPS-архив daniilakk / buscheb.ru","url":"https://huggingface.co/datasets/daniilakk/cheboksary-public-transport-gps-daily"},{"name":"Каталог остановок buscheb.ru","url":"https://buscheb.ru/php/getStations.php?city=cheboksari"},{"name":"ЧТУ · официальные маршруты","url":"https://xn--21-qmces.xn--p1ai/marshruty.html"}],"confidence":"высокая для наблюдения, средняя для причины","stop":500,"type":"speed","score":68.0,"rank":12}},{"type":"Feature","geometry":{"type":"Point","coordinates":[47.163555,56.135702]},"properties":{"id":"m05","title":"Регулярность: Мичмана Павлова","status":"подтверждённое наблюдение","problem":"Наблюдаемые интервалы сильно различаются; зафиксированы короткие следования и длинные разрывы.","evidence":["Т:1, rid 1, курс С, день, будни: медиана 7.0 мин, P90 18.8 мин, CV 0.84.","458 интервалов за 14 дней; H≤2 мин: 28, длинные разрывы: 67; исключено 5 интервалов. 95% ДИ медианы 6.8–8.0 мин. Условное E(W) 8.0 мин; ДИ [7.317, 8.821].","Даты: 2026-09-15, 2026-09-16, 2026-09-17, 2026-09-18, 2026-09-21, 2026-09-22, 2026-09-23, 2026-09-24, 2026-09-25, 2026-09-28, 2026-09-29, 2026-09-30, 2026-10-01, 2026-10-02"],"proposal":"Сверить с рейсами оператора и натурным журналом; при подтверждении рассмотреть регулирование интервалов и навигацию о следующем рейсе.","mechanism":"Более ровные интервалы уменьшают случайное ожидание; нельзя оценить пассажирскую пользу без спроса и полной записи рейсов.","limit":"Входы в 70 м могут пропускаться или относиться к соседней стороне. Полнота отдельных машин неизвестна; это не доказательство нарушения расписания. E(W) — только сценарий случайного прихода.","fieldwork":"Считать фактические проезды и посадки в оба направления в те же часы; сверить пропуски GPS, диспетчерский журнал, работу табло и доступность посадочной площадки.","ratings":{"benefit":4,"safety":2,"accessibility":3,"feasibility":4,"evidence":4},"sources":[{"name":"GPS-архив daniilakk / buscheb.ru","url":"https://huggingface.co/datasets/daniilakk/cheboksary-public-transport-gps-daily"},{"name":"Каталог остановок buscheb.ru","url":"https://buscheb.ru/php/getStations.php?city=cheboksari"},{"name":"ЧТУ · официальные маршруты","url":"https://xn--21-qmces.xn--p1ai/marshruty.html"},{"name":"ЧТУ · расписание","url":"https://xn--21-qmces.xn--p1ai/raspis.html"}],"confidence":"высокая для наблюдения, средняя для причины","stop":303,"type":"headway","score":66.0,"rank":13}},{"type":"Feature","geometry":{"type":"Point","coordinates":[47.362843,56.125551]},"properties":{"id":"m06","title":"Регулярность: Проспект Тракторостроителей","status":"подтверждённое наблюдение","problem":"Наблюдаемые интервалы сильно различаются; зафиксированы короткие следования и длинные разрывы.","evidence":["М:65, rid 148, курс В, день, будни: медиана 10.1 мин, P90 29.1 мин, CV 0.82.","324 интервалов за 13 дней; H≤2 мин: 14, длинные разрывы: 58; исключено 1 интервалов. 95% ДИ медианы 8.3–11.3 мин. Условное E(W) 11.0 мин; ДИ [9.924, 11.961].","Даты: 2026-09-15, 2026-09-16, 2026-09-17, 2026-09-21, 2026-09-22, 2026-09-23, 2026-09-24, 2026-09-25, 2026-09-28, 2026-09-29, 2026-09-30, 2026-10-01, 2026-10-02"],"proposal":"Сверить с рейсами оператора и натурным журналом; при подтверждении рассмотреть регулирование интервалов и навигацию о следующем рейсе.","mechanism":"Более ровные интервалы уменьшают случайное ожидание; нельзя оценить пассажирскую пользу без спроса и полной записи рейсов.","limit":"Входы в 70 м могут пропускаться или относиться к соседней стороне. Полнота отдельных машин неизвестна; это не доказательство нарушения расписания. E(W) — только сценарий случайного прихода.","fieldwork":"Считать фактические проезды и посадки в оба направления в те же часы; сверить пропуски GPS, диспетчерский журнал, работу табло и доступность посадочной площадки.","ratings":{"benefit":4,"safety":2,"accessibility":3,"feasibility":4,"evidence":4},"sources":[{"name":"GPS-архив daniilakk / buscheb.ru","url":"https://huggingface.co/datasets/daniilakk/cheboksary-public-transport-gps-daily"},{"name":"Каталог остановок buscheb.ru","url":"https://buscheb.ru/php/getStations.php?city=cheboksari"},{"name":"ЧТУ · официальные маршруты","url":"https://xn--21-qmces.xn--p1ai/marshruty.html"},{"name":"ЧТУ · расписание","url":"https://xn--21-qmces.xn--p1ai/raspis.html"}],"confidence":"высокая для наблюдения, средняя для причины","stop":403,"type":"headway","score":66.0,"rank":14}}]}